{
  "type": "FeatureCollection",
  "features": [
    {
      "type": "Feature",
      "properties": {
        "norad_id": 66647,
        "name": "COSMOS 2597 (RODNIK-S 22)",
        "group": "last-30-days",
        "lat": 45.67122857339356,
        "lon": 92.69278797908302,
        "alt_km": 1498.1067012414005,
        "timestamp": "2025-12-22T09:53:36.143143+00:00",
        "meta_object_name": "COSMOS 2597 (RODNIK-S 22)",
        "meta_object_id": "2025-273A",
        "meta_epoch": "2025-12-22T03:22:28.818048",
        "meta_mean_motion": 12.4195208,
        "meta_eccentricity": 0.0007616,
        "meta_inclination": 82.4994,
        "meta_ra_of_asc_node": 280.6117,
        "meta_arg_of_pericenter": 264.2782,
        "meta_mean_anomaly": 95.7429,
        "meta_ephemeris_type": 0,
        "meta_classification_type": "U",
        "meta_norad_cat_id": 66647,
        "meta_element_set_no": 999,
        "meta_rev_at_epoch": 330,
        "meta_bstar": 0.00010917,
        "meta_mean_motion_dot": 2.5e-07,
        "meta_mean_motion_ddot": 0,
        "tle_line1": "1 66647U 25273A   25356.14061132  .00000025  00000+0  10917-3 0  9994",
        "tle_line2": "2 66647  82.4994 280.6117 0007616 264.2782  95.7429 12.41952080  3307"
      },
      "geometry": {
        "type": "Point",
        "coordinates": [
          92.69278797908302,
          45.67122857339356
        ]
      }
    },
    {
      "type": "Feature",
      "properties": {
        "norad_id": 66648,
        "name": "COSMOS 2598 (RODNIK-S 23)",
        "group": "last-30-days",
        "lat": -33.85922457573983,
        "lon": 105.5003528808932,
        "alt_km": 1492.5247359664345,
        "timestamp": "2025-12-22T09:53:36.143153+00:00",
        "meta_object_name": "COSMOS 2598 (RODNIK-S 23)",
        "meta_object_id": "2025-273B",
        "meta_epoch": "2025-12-22T02:57:03.128832",
        "meta_mean_motion": 12.43233646,
        "meta_eccentricity": 0.0008133,
        "meta_inclination": 82.5033,
        "meta_ra_of_asc_node": 280.6122,
        "meta_arg_of_pericenter": 214.4397,
        "meta_mean_anomaly": 145.6156,
        "meta_ephemeris_type": 0,
        "meta_classification_type": "U",
        "meta_norad_cat_id": 66648,
        "meta_element_set_no": 999,
        "meta_rev_at_epoch": 330,
        "meta_bstar": 0.00032325,
        "meta_mean_motion_dot": 5.5e-07,
        "meta_mean_motion_ddot": 0,
        "tle_line1": "1 66648U 25273B   25356.12295288  .00000055  00000+0  32325-3 0  9994",
        "tle_line2": "2 66648  82.5033 280.6122 0008133 214.4397 145.6156 12.43233646  3307"
      },
      "geometry": {
        "type": "Point",
        "coordinates": [
          105.5003528808932,
          -33.85922457573983
        ]
      }
    },
    {
      "type": "Feature",
      "properties": {
        "norad_id": 66649,
        "name": "COSMOS 2599 (RODNIK-S 24)",
        "group": "last-30-days",
        "lat": 82.02911253826935,
        "lon": -9.459260476148698,
        "alt_km": 1499.0922778143731,
        "timestamp": "2025-12-22T09:53:36.143163+00:00",
        "meta_object_name": "COSMOS 2599 (RODNIK-S 24)",
        "meta_object_id": "2025-273C",
        "meta_epoch": "2025-12-22T01:41:09.077280",
        "meta_mean_motion": 12.4115102,
        "meta_eccentricity": 0.0006254,
        "meta_inclination": 82.505,
        "meta_ra_of_asc_node": 280.6861,
        "meta_arg_of_pericenter": 255.5628,
        "meta_mean_anomaly": 104.4756,
        "meta_ephemeris_type": 0,
        "meta_classification_type": "U",
        "meta_norad_cat_id": 66649,
        "meta_element_set_no": 999,
        "meta_rev_at_epoch": 329,
        "meta_bstar": 0.00015501,
        "meta_mean_motion_dot": 3.1e-07,
        "meta_mean_motion_ddot": 0,
        "tle_line1": "1 66649U 25273C   25356.07024395  .00000031  00000+0  15501-3 0  9999",
        "tle_line2": "2 66649  82.5050 280.6861 0006254 255.5628 104.4756 12.41151020  3292"
      },
      "geometry": {
        "type": "Point",
        "coordinates": [
          -9.459260476148698,
          82.02911253826935
        ]
      }
    },
    {
      "type": "Feature",
      "properties": {
        "norad_id": 66650,
        "name": "BEE-1000",
        "group": "last-30-days",
        "lat": 1.3598194866665911,
        "lon": -76.7622806155843,
        "alt_km": 601.7820939461144,
        "timestamp": "2025-12-22T09:53:36.143174+00:00",
        "meta_object_name": "BEE-1000",
        "meta_object_id": "2025-274A",
        "meta_epoch": "2025-12-22T01:50:15.668736",
        "meta_mean_motion": 14.916911,
        "meta_eccentricity": 0.0010866,
        "meta_inclination": 97.7404,
        "meta_ra_of_asc_node": 283.0932,
        "meta_arg_of_pericenter": 216.848,
        "meta_mean_anomaly": 143.1993,
        "meta_ephemeris_type": 0,
        "meta_classification_type": "U",
        "meta_norad_cat_id": 66650,
        "meta_element_set_no": 999,
        "meta_rev_at_epoch": 379,
        "meta_bstar": 0.00015818,
        "meta_mean_motion_dot": 1.536e-05,
        "meta_mean_motion_ddot": 0,
        "tle_line1": "1 66650U 25274A   25356.07657024  .00001536  00000+0  15818-3 0  9995",
        "tle_line2": "2 66650  97.7404 283.0932 0010866 216.8480 143.1993 14.91691100  3794"
      },
      "geometry": {
        "type": "Point",
        "coordinates": [
          -76.7622806155843,
          1.3598194866665911
        ]
      }
    },
    {
      "type": "Feature",
      "properties": {
        "norad_id": 66651,
        "name": "2025-274B",
        "group": "last-30-days",
        "lat": 11.584576199326849,
        "lon": -78.17229959787399,
        "alt_km": 600.7014019626558,
        "timestamp": "2025-12-22T09:53:36.143183+00:00",
        "meta_object_name": "2025-274B",
        "meta_object_id": "2025-274B",
        "meta_epoch": "2025-12-21T17:44:37.356000",
        "meta_mean_motion": 14.91854943,
        "meta_eccentricity": 0.0011129,
        "meta_inclination": 97.7399,
        "meta_ra_of_asc_node": 282.7646,
        "meta_arg_of_pericenter": 216.8839,
        "meta_mean_anomaly": 143.1615,
        "meta_ephemeris_type": 0,
        "meta_classification_type": "U",
        "meta_norad_cat_id": 66651,
        "meta_element_set_no": 999,
        "meta_rev_at_epoch": 374,
        "meta_bstar": 0.00029304,
        "meta_mean_motion_dot": 2.907e-05,
        "meta_mean_motion_ddot": 0,
        "tle_line1": "1 66651U 25274B   25355.73932125  .00002907  00000+0  29304-3 0  9994",
        "tle_line2": "2 66651  97.7399 282.7646 0011129 216.8839 143.1615 14.91854943  3749"
      },
      "geometry": {
        "type": "Point",
        "coordinates": [
          -78.17229959787399,
          11.584576199326849
        ]
      }
    },
    {
      "type": "Feature",
      "properties": {
        "norad_id": 66652,
        "name": "2025-274C",
        "group": "last-30-days",
        "lat": 22.50983106745781,
        "lon": -79.79980112769542,
        "alt_km": 598.6361477861119,
        "timestamp": "2025-12-22T09:53:36.143193+00:00",
        "meta_object_name": "2025-274C",
        "meta_object_id": "2025-274C",
        "meta_epoch": "2025-12-22T01:44:36.541824",
        "meta_mean_motion": 14.91950157,
        "meta_eccentricity": 0.0010692,
        "meta_inclination": 97.7404,
        "meta_ra_of_asc_node": 283.098,
        "meta_arg_of_pericenter": 222.3853,
        "meta_mean_anomaly": 137.6541,
        "meta_ephemeris_type": 0,
        "meta_classification_type": "U",
        "meta_norad_cat_id": 66652,
        "meta_element_set_no": 999,
        "meta_rev_at_epoch": 379,
        "meta_bstar": 0.00030285,
        "meta_mean_motion_dot": 3.013e-05,
        "meta_mean_motion_ddot": 0,
        "tle_line1": "1 66652U 25274C   25356.07264516  .00003013  00000+0  30285-3 0  9994",
        "tle_line2": "2 66652  97.7404 283.0980 0010692 222.3853 137.6541 14.91950157  3799"
      },
      "geometry": {
        "type": "Point",
        "coordinates": [
          -79.79980112769542,
          22.50983106745781
        ]
      }
    },
    {
      "type": "Feature",
      "properties": {
        "norad_id": 66653,
        "name": "2025-274D",
        "group": "last-30-days",
        "lat": 22.941654224945747,
        "lon": -79.86903311128412,
        "alt_km": 599.3448129843073,
        "timestamp": "2025-12-22T09:53:36.143203+00:00",
        "meta_object_name": "2025-274D",
        "meta_object_id": "2025-274D",
        "meta_epoch": "2025-12-22T01:44:29.360256",
        "meta_mean_motion": 14.91947484,
        "meta_eccentricity": 0.001162,
        "meta_inclination": 97.7403,
        "meta_ra_of_asc_node": 283.0978,
        "meta_arg_of_pericenter": 219.0062,
        "meta_mean_anomaly": 141.0319,
        "meta_ephemeris_type": 0,
        "meta_classification_type": "U",
        "meta_norad_cat_id": 66653,
        "meta_element_set_no": 999,
        "meta_rev_at_epoch": 379,
        "meta_bstar": 0.00020976,
        "meta_mean_motion_dot": 2.07e-05,
        "meta_mean_motion_ddot": 0,
        "tle_line1": "1 66653U 25274D   25356.07256204  .00002070  00000+0  20976-3 0  9998",
        "tle_line2": "2 66653  97.7403 283.0978 0011620 219.0062 141.0319 14.91947484  3794"
      },
      "geometry": {
        "type": "Point",
        "coordinates": [
          -79.86903311128412,
          22.941654224945747
        ]
      }
    }
  ]
}